{"fetched_at":"2026-03-30T06:02:59Z","count":15439,"tles":[{"name":"STARLINK-34481","line1":"1 65104U 25167AC  26087.89786791  .00016522  00000+0  56865-3 0  9993","line2":"2 65104  53.1605 297.2246 0001184  77.8123 282.3010 15.30203511 36424","category":"Starlink"}]}